{
  "type": "FeatureCollection",
  "features": [
    {
      "type": "Feature",
      "properties": {
        "name": "Uttar Pradesh",
        "code": "UP"
      },
      "geometry": {
        "type": "Polygon",
        "coordinates": [
          [
            [
              77.1,
              30.4
            ],
            [
              78.1,
              29.5
            ],
            [
              80.3,
              28.6
            ],
            [
              84.6,
              27.3
            ],
            [
              84.3,
              24.6
            ],
            [
              82.8,
              23.9
            ],
            [
              78.3,
              24.2
            ],
            [
              77.5,
              27.5
            ],
            [
              77.1,
              30.4
            ]
          ]
        ]
      }
    },
    {
      "type": "Feature",
      "properties": {
        "name": "Gujarat",
        "code": "GJ"
      },
      "geometry": {
        "type": "Polygon",
        "coordinates": [
          [
            [
              68.7,
              23.7
            ],
            [
              71.4,
              24.7
            ],
            [
              74.3,
              22.0
            ],
            [
              73.5,
              20.1
            ],
            [
              72.6,
              21.1
            ],
            [
              70.0,
              20.7
            ],
            [
              68.7,
              23.7
            ]
          ]
        ]
      }
    },
    {
      "type": "Feature",
      "properties": {
        "name": "Madhya Pradesh",
        "code": "MP"
      },
      "geometry": {
        "type": "Polygon",
        "coordinates": [
          [
            [
              74.0,
              26.9
            ],
            [
              78.2,
              26.8
            ],
            [
              82.8,
              24.2
            ],
            [
              80.6,
              21.8
            ],
            [
              74.0,
              21.1
            ],
            [
              74.0,
              26.9
            ]
          ]
        ]
      }
    },
    {
      "type": "Feature",
      "properties": {
        "name": "Bihar",
        "code": "BR"
      },
      "geometry": {
        "type": "Polygon",
        "coordinates": [
          [
            [
              83.3,
              27.5
            ],
            [
              88.1,
              26.5
            ],
            [
              87.6,
              24.6
            ],
            [
              83.3,
              24.6
            ],
            [
              83.3,
              27.5
            ]
          ]
        ]
      }
    },
    {
      "type": "Feature",
      "properties": {
        "name": "Punjab",
        "code": "PB"
      },
      "geometry": {
        "type": "Polygon",
        "coordinates": [
          [
            [
              73.9,
              32.5
            ],
            [
              76.9,
              31.1
            ],
            [
              76.1,
              29.6
            ],
            [
              74.0,
              29.9
            ],
            [
              73.9,
              32.5
            ]
          ]
        ]
      }
    },
    {
      "type": "Feature",
      "properties": {
        "name": "Maharashtra",
        "code": "MH"
      },
      "geometry": {
        "type": "Polygon",
        "coordinates": [
          [
            [
              72.8,
              20.3
            ],
            [
              80.9,
              21.5
            ],
            [
              80.4,
              18.7
            ],
            [
              74.5,
              15.6
            ],
            [
              72.8,
              20.3
            ]
          ]
        ]
      }
    },
    {
      "type": "Feature",
      "properties": {
        "name": "Rajasthan",
        "code": "RJ"
      },
      "geometry": {
        "type": "Polygon",
        "coordinates": [
          [
            [
              69.5,
              30.2
            ],
            [
              75.2,
              30.2
            ],
            [
              78.2,
              26.8
            ],
            [
              74.0,
              23.5
            ],
            [
              69.5,
              26.0
            ],
            [
              69.5,
              30.2
            ]
          ]
        ]
      }
    },
    {
      "type": "Feature",
      "properties": {
        "name": "Uttarakhand",
        "code": "UK"
      },
      "geometry": {
        "type": "Polygon",
        "coordinates": [
          [
            [
              77.6,
              31.4
            ],
            [
              81.0,
              30.3
            ],
            [
              80.1,
              28.7
            ],
            [
              77.6,
              30.3
            ],
            [
              77.6,
              31.4
            ]
          ]
        ]
      }
    },
    {
      "type": "Feature",
      "properties": {
        "name": "Delhi",
        "code": "DL"
      },
      "geometry": {
        "type": "Polygon",
        "coordinates": [
          [
            [
              76.8,
              28.9
            ],
            [
              77.3,
              28.9
            ],
            [
              77.3,
              28.4
            ],
            [
              76.8,
              28.4
            ],
            [
              76.8,
              28.9
            ]
          ]
        ]
      }
    },
    {
      "type": "Feature",
      "properties": {
        "name": "Chandigarh",
        "code": "CH"
      },
      "geometry": {
        "type": "Polygon",
        "coordinates": [
          [
            [
              76.7,
              30.8
            ],
            [
              76.8,
              30.8
            ],
            [
              76.8,
              30.7
            ],
            [
              76.7,
              30.7
            ],
            [
              76.7,
              30.8
            ]
          ]
        ]
      }
    },
    {
      "type": "Feature",
      "properties": {
        "name": "Tamil Nadu",
        "code": "TN"
      },
      "geometry": {
        "type": "Polygon",
        "coordinates": [
          [
            [
              76.2,
              13.5
            ],
            [
              80.3,
              13.5
            ],
            [
              79.8,
              10.0
            ],
            [
              77.5,
              8.1
            ],
            [
              76.2,
              13.5
            ]
          ]
        ]
      }
    },
    {
      "type": "Feature",
      "properties": {
        "name": "Karnataka",
        "code": "KA"
      },
      "geometry": {
        "type": "Polygon",
        "coordinates": [
          [
            [
              74.1,
              18.4
            ],
            [
              77.6,
              18.0
            ],
            [
              78.4,
              13.8
            ],
            [
              76.5,
              11.6
            ],
            [
              74.1,
              14.8
            ],
            [
              74.1,
              18.4
            ]
          ]
        ]
      }
    },
    {
      "type": "Feature",
      "properties": {
        "name": "Kerala",
        "code": "KL"
      },
      "geometry": {
        "type": "Polygon",
        "coordinates": [
          [
            [
              74.9,
              12.8
            ],
            [
              77.4,
              10.5
            ],
            [
              77.2,
              8.3
            ],
            [
              76.2,
              10.0
            ],
            [
              74.9,
              12.8
            ]
          ]
        ]
      }
    },
    {
      "type": "Feature",
      "properties": {
        "name": "West Bengal",
        "code": "WB"
      },
      "geometry": {
        "type": "Polygon",
        "coordinates": [
          [
            [
              88.0,
              27.2
            ],
            [
              89.8,
              26.5
            ],
            [
              89.0,
              21.6
            ],
            [
              86.8,
              21.8
            ],
            [
              88.0,
              27.2
            ]
          ]
        ]
      }
    },
    {
      "type": "Feature",
      "properties": {
        "name": "Odisha",
        "code": "OD"
      },
      "geometry": {
        "type": "Polygon",
        "coordinates": [
          [
            [
              83.8,
              22.5
            ],
            [
              87.5,
              21.6
            ],
            [
              85.2,
              19.1
            ],
            [
              82.5,
              17.8
            ],
            [
              83.8,
              22.5
            ]
          ]
        ]
      }
    },
    {
      "type": "Feature",
      "properties": {
        "name": "Telangana",
        "code": "TG"
      },
      "geometry": {
        "type": "Polygon",
        "coordinates": [
          [
            [
              77.3,
              19.9
            ],
            [
              81.3,
              18.8
            ],
            [
              80.8,
              15.8
            ],
            [
              77.5,
              15.9
            ],
            [
              77.3,
              19.9
            ]
          ]
        ]
      }
    },
    {
      "type": "Feature",
      "properties": {
        "name": "Andhra Pradesh",
        "code": "AP"
      },
      "geometry": {
        "type": "Polygon",
        "coordinates": [
          [
            [
              76.8,
              15.8
            ],
            [
              84.7,
              19.1
            ],
            [
              80.3,
              13.5
            ],
            [
              78.2,
              13.5
            ],
            [
              76.8,
              15.8
            ]
          ]
        ]
      }
    },
    {
      "type": "Feature",
      "properties": {
        "name": "Assam",
        "code": "AS"
      },
      "geometry": {
        "type": "Polygon",
        "coordinates": [
          [
            [
              89.7,
              26.9
            ],
            [
              96.0,
              27.9
            ],
            [
              95.2,
              24.5
            ],
            [
              92.0,
              24.1
            ],
            [
              89.7,
              26.9
            ]
          ]
        ]
      }
    },
    {
      "type": "Feature",
      "properties": {
        "name": "Jharkhand",
        "code": "JH"
      },
      "geometry": {
        "type": "Polygon",
        "coordinates": [
          [
            [
              83.3,
              25.3
            ],
            [
              87.9,
              25.3
            ],
            [
              86.8,
              22.0
            ],
            [
              83.3,
              22.0
            ],
            [
              83.3,
              25.3
            ]
          ]
        ]
      }
    },
    {
      "type": "Feature",
      "properties": {
        "name": "Chhattisgarh",
        "code": "CG"
      },
      "geometry": {
        "type": "Polygon",
        "coordinates": [
          [
            [
              80.2,
              24.1
            ],
            [
              84.4,
              23.7
            ],
            [
              83.4,
              17.8
            ],
            [
              80.3,
              18.8
            ],
            [
              80.2,
              24.1
            ]
          ]
        ]
      }
    },
    {
      "type": "Feature",
      "properties": {
        "name": "Haryana",
        "code": "HR"
      },
      "geometry": {
        "type": "Polygon",
        "coordinates": [
          [
            [
              74.5,
              30.9
            ],
            [
              77.6,
              30.5
            ],
            [
              77.4,
              27.6
            ],
            [
              74.5,
              27.6
            ],
            [
              74.5,
              30.9
            ]
          ]
        ]
      }
    },
    {
      "type": "Feature",
      "properties": {
        "name": "Himachal Pradesh",
        "code": "HP"
      },
      "geometry": {
        "type": "Polygon",
        "coordinates": [
          [
            [
              75.6,
              33.2
            ],
            [
              79.0,
              31.9
            ],
            [
              77.5,
              30.4
            ],
            [
              75.6,
              31.3
            ],
            [
              75.6,
              33.2
            ]
          ]
        ]
      }
    },
    {
      "type": "Feature",
      "properties": {
        "name": "Jammu and Kashmir",
        "code": "JK"
      },
      "geometry": {
        "type": "Polygon",
        "coordinates": [
          [
            [
              73.5,
              35.5
            ],
            [
              77.8,
              35.5
            ],
            [
              76.5,
              32.2
            ],
            [
              73.5,
              32.5
            ],
            [
              73.5,
              35.5
            ]
          ]
        ]
      }
    }
  ]
}